{
  "type": "FeatureCollection",
  "features": [
    {
      "type": "Feature",
      "properties": {},
      "geometry": {
        "coordinates": [
          [
            [
              15.607665102031376,
              49.39410259980414
            ],
            [
              15.607665102031376,
              49.28696926500524
            ],
            [
              20.090976662083534,
              49.28696926500524
            ],
            [
              20.090976662083534,
              49.39410259980414
            ],
            [
              15.607665102031376,
              49.39410259980414
            ]
          ]
        ],
        "type": "Polygon"
      }
    }
  ]
}